{
  "norad_id": 69044,
  "name": "STARLINK-37664",
  "history": [
    {
      "epoch": "2026-05-13T20:00:01.999008Z",
      "apogee_km": 312.8984934225273,
      "perigee_km": 311.1536988870512,
      "latitude_deg": -42.22490394339655,
      "longitude_deg": -176.9428482993623,
      "height_km": 329.03283106848534,
      "semi_major_axis_km": 6690.163096154789,
      "eccentricity": 0.0001304,
      "inclination_deg": 97.2883,
      "raan_deg": 348.0257,
      "arg_perigee_deg": 97.7338,
      "mean_anomaly_deg": 219.9108,
      "mean_motion_rev_day": 15.86527864
    }
  ]
}