[ {"name": "STARLINK-37664", "line1": "1 69044U 26101V   26133.83335647 -.01863207  00000+0 -86726-2 0  9996", "line2": "2 69044  97.2883 348.0257 0001304  97.7338 219.9108 15.86527864  2415"}]